332P-E/Ikeya-Murakami,e,9.3774,3.8228,152.2825,3.079877,0.1823493,0.48922008,359.9889,03/17.0/2016,2000,g 21.0,4.0
# From MPEC 2016-ED0
332P-F/Ikeya-Murakami,e,9.5293,3.4757,152.8203,3.163214,0.1751908,0.49918860,359.8501,03/17.0/2016,2000,g 21.0,4.0
# From MPEC 2016-ED0
332P-G/Ikeya-Murakami,e,9.2523,3.6955,154.4000,3.050519,0.1849880,0.49200362,359.9006,03/19.0/2016,2000,g 19.0,4.0
# From MPC100285
332P-H/Ikeya-Murakami,e,9.3794,3.7884,152.3393,3.089194,0.1815249,0.48950208,332.0976,03/18.0/2021,2000,g 19.0,4.0
# From MPEC 2016-ED0
332P-I/Ikeya-Murakami,e,9.3791,3.8048,152.3297,3.081767,0.1821815,0.48955490,359.9360,03/17.0/2016,2000,g 20.5,2.0
# From MPEC 2016-EI8
332P-J/Ikeya-Murakami,e,9.4296,3.6729,152.7712,3.115165,0.1792596,0.49429435,359.8613,03/17.0/2016,2000,g 20.5,2.0
# From MPEC 2020-L06
333P/LINEAR,e,131.9798,115.6252,26.0133,4.218993,0.1137342,0.73677421,206.1653,03/18.0/2021,2000,g 15.0,4.0
# From MPC115888
334P/NEAT,e,20.4419,90.6899,90.0399,6.838480,0.0551144,0.35201279,76.0366,03/18.0/2021,2000,g 10.5,4.0
# From MPC100285
335P/Gibbs,e,7.2933,330.8472,162.2547,3.578263,0.1456115,0.54570809,285.4318,03/18.0/2021,2000,g 17.0,4.0
# From MPC105244
336P/McNaught,e,17.8338,298.2285,308.7553,5.031931,0.0873177,0.44521875,131.3548,03/18.0/2021,2000,g 13.5,4.0
# From MPC115888
337P/WISE,e,15.3726,106.0704,160.9964,3.287318,0.1653642,0.49682267,282.2686,03/18.0/2021,2000,g 17.0,4.0
# From MPC104796
338P/McNaught,e,25.3775,9.7890,4.3985,3.897399,0.1280978,0.41136004,201.9054,03/18.0/2021,2000,g 12.0,4.0
# From MPC101101
339P/Gibbs,e,5.7342,172.7356,27.5193,3.696377,0.1386883,0.63562819,235.7210,03/18.0/2021,2000,g 17.0,4.0
# From MPC102957
340P/Boattini,e,2.0794,291.7239,35.8310,4.251281,0.1124409,0.28074904,177.4958,03/18.0/2021,2000,g 13.0,4.0
# From MPEC 2021-BE3
341P/Gibbs,e,3.7954,29.9832,312.1425,4.293671,0.1107799,0.41540718,194.3029,03/18.0/2021,2000,g 12.5,4.0
# From MPC101101
342P/SOHO,e,11.6689,27.8936,73.0990,3.043374,0.1856398,0.98282295,0.0000,10/19.2802/2021,2000,g  9.0,4.0
# From MPC109148
343P/NEAT-LONEOS,e,5.5841,257.2134,137.3724,5.460690,0.0772383,0.58411217,116.6113,03/18.0/2021,2000,g 14.0,4.0
# From MPC109148
344P/Read,e,3.4907,273.1785,140.3844,4.866093,0.0918192,0.42182391,146.7560,03/18.0/2021,2000,g 13.0,4.0
# From MPC109148
345P/LINEAR,e,2.7270,154.5037,196.3804,4.039095,0.1214166,0.22093723,206.9452,03/18.0/2021,2000,g 12.0,4.0
# From MPC110086
346P/Catalina,e,22.1862,102.4670,335.9858,4.475953,0.1040820,0.50233506,155.4453,03/18.0/2021,2000,g 14.0,4.0
# From MPC108599
347P/PANSTARRS,e,11.7490,261.0343,98.3229,3.606372,0.1439124,0.38567257,237.0785,03/18.0/2021,2000,g 15.0,4.0
# From MPEC 2020-SI8
348P/PANSTARRS,e,17.7406,312.9420,135.5967,3.150872,0.1762211,0.30670201,301.6074,03/18.0/2021,2000,g 14.0,4.0
# From MPC112394
349P/Lemmon,e,5.4909,331.7440,256.0501,3.572907,0.1459390,0.29909019,189.7770,03/18.0/2021,2000,g 14.0,4.0
# From MPC111775
350P/McNaught,e,7.3569,65.3470,140.3162,4.092599,0.1190434,0.09133772,141.4523,03/18.0/2021,2000,g 14.0,4.0
# From MPC105244
351P/Wiegert-PANSTARRS,e,12.7888,283.4491,352.6576,4.437391,0.1054417,0.29593568,205.1848,03/18.0/2021,2000,g 12.5,4.0
# From MPC110086
352P/Skiff,e,21.0089,28.0726,309.1767,6.637036,0.0576425,0.61821693,78.6548,03/18.0/2021,2000,g 11.5,4.0
# From MPEC 2020-AA5
353P/McNaught,e,28.4248,121.5625,230.3794,4.171306,0.1156900,0.47007770,136.7744,03/18.0/2021,2000,g 14.5,4.0
# From MPC105545
354P/LINEAR,e,5.2556,320.1294,132.9813,2.289689,0.2844719,0.12566455,92.3719,03/18.0/2021,2000,g 15.5,4.0
# From MPEC 2020-AA5
355P/LINEAR-NEAT,e,11.0384,51.4342,336.2501,3.472028,0.1523454,0.50708982,190.7404,03/18.0/2021,2000,g 15.5,2.0
# From MPEC 2021-F20
356P/WISE,e,9.6366,160.7928,225.9960,4.159982,0.1161628,0.35490733,137.8561,03/18.0/2021,2000,g 14.0,4.0
# From MPC114609
357P/Hill,e,6.3110,44.5729,1.4021,4.460952,0.1046075,0.43470325,107.1266,03/18.0/2021,2000,g 15.5,4.0
# From MPEC 2020-HN5
358P/PANSTARRS,e,11.0576,85.7096,299.7274,3.147890,0.1764716,0.23834237,189.0702,03/18.0/2021,2000,g 18.0,4.0
# From MPC110086
359P/LONEOS,e,10.2667,149.7561,200.1481,4.639576,0.0986249,0.32405533,128.6601,03/18.0/2021,2000,g 13.5,4.0
# From MPC108599
360P/WISE,e,24.1027,2.1905,354.1224,3.702432,0.1383482,0.49883152,180.7706,03/18.0/2021,2000,g 19.5,6.0
# From MPC114609
361P/Spacewatch,e,13.8909,203.2509,219.0681,4.939205,0.0897880,0.43796782,88.8760,03/18.0/2021,2000,g 12.0,4.0
# From MPEC 2017-V13
362P/,e,15.5570,192.5734,53.7006,3.968555,0.1246682,0.27956911,207.8837,03/18.0/2021,2000,g 12.9,2.0
# From MPC114609
363P/Lemmon,e,5.3780,147.0196,341.2211,3.543429,0.1477639,0.52883556,163.3675,03/18.0/2021,2000,g 17.5,4.0
# From MPEC 2021-F20
364P/PANSTARRS,e,12.1416,46.1962,212.0013,2.879159,0.2017464,0.72227919,201.2750,03/18.0/2021,2000,g 17.0,2.0
# From MPC111775
365P/PANSTARRS,e,9.8295,87.3121,66.2760,3.176672,0.1740786,0.57658489,196.7085,03/18.0/2021,2000,g 17.0,4.0
# From MPC114610
366P/Spacewatch,e,8.8591,70.7574,153.1496,3.495662,0.1508030,0.34833098,146.4594,03/18.0/2021,2000,g 15.0,4.0
# From MPC112395
367P/Catalina,e,8.4628,58.7197,172.9146,3.505537,0.1501662,0.28032630,150.3140,03/18.0/2021,2000,g 17.5,2.0
# From MPC114610
368P/NEAT,e,15.4819,257.9506,118.7849,5.526875,0.0758551,0.62634381,69.4412,03/18.0/2021,2000,g 14.0,4.0
# From MPC114610
369P/Hill,e,10.3130,47.2975,13.1882,4.384781,0.1073451,0.55434816,94.9894,03/18.0/2021,2000,g 15.0,4.0
# From MPEC 2021-F20
370P/NEAT,e,19.4033,55.1231,356.6864,6.435371,0.0603731,0.61452479,61.1283,03/18.0/2021,2000,g 13.0,4.0
# From MPC114610
371P/LINEAR-Skiff,e,17.3774,67.3070,308.4573,4.181157,0.1152814,0.47657914,103.1917,03/18.0/2021,2000,g 16.0,4.0
# From MPEC 2020-K19
372P/McNaught,e,9.5100,325.8161,27.2623,4.503993,0.1031116,0.15269234,90.5635,03/18.0/2021,2000,g 13.5,4.0
# From MPEC 2021-F20
373P/Rinner,e,13.7606,231.9482,221.1147,3.804014,0.1328437,0.39217432,94.2123,03/18.0/2021,2000,g 14.5,4.0
# From MPC114610
374P/Larson,e,10.7628,7.9122,51.5027,4.974074,0.0888456,0.46245398,70.8374,03/18.0/2021,2000,g 14.0,4.0
# From MPEC 2021-F20
375P/Hill,e,17.3612,359.9437,119.4681,5.557312,0.0752327,0.65861481,61.5352,03/18.0/2021,2000,g 16.0,4.0
# From MPEC 2020-W26
376P/LONEOS,e,1.1924,314.8168,284.9041,5.845898,0.0697312,0.51766464,37.4842,03/18.0/2021,2000,g 12.5,4.0
# From MPC115888
377P/Scotti,e,9.0230,226.0599,355.0336,6.711277,0.0566887,0.25245867,14.1191,03/18.0/2021,2000,g  9.5,4.0
# From MPEC 2019-TG9
378P/McNaught,e,19.0747,94.4730,193.9639,6.387606,0.0610516,0.47082221,9.0804,03/18.0/2021,2000,g 12.0,4.0
# From MPC115889
379P/Spacewatch,e,12.4114,183.8433,31.0803,3.523610,0.1490123,0.33967466,88.6291,03/18.0/2021,2000,g 15.0,4.0
# From MPEC 2020-KB7
380P/PANSTARRS,e,8.2835,132.9832,89.0337,4.525175,0.1023885,0.33190687,66.8704,03/18.0/2021,2000,g 12.5,4.0
# From MPEC 2021-F20
381P/LINEAR-Spacewatch,e,28.3753,173.7749,173.1535,7.121909,0.0518572,0.68181008,27.8981,03/18.0/2021,2000,g 17.5,2.0
# From MPC115889
382P/Larson,e,7.7875,175.7139,173.7072,6.340071,0.0617395,0.30678206,336.8288,03/18.0/2021,2000,g  8.0,4.0
# From MPC118844
383P/Christensen,e,12.3210,207.8763,133.6676,3.544981,0.1476669,0.59959519,75.1199,03/18.0/2021,2000,g 18.0,4.0
# From MPEC 2020-W26
384P/Kowalski,e,7.2833,354.2270,37.6260,2.901217,0.1994499,0.61550686,104.4154,03/18.0/2021,2000,g 19.5,4.0
# From MPEC 2021-F20
385P/Hill,e,16.8288,357.0634,44.3269,4.288328,0.1109870,0.40142006,61.0623,03/18.0/2021,2000,g 13.0,4.0
# From MPEC 2021-BE3
386P/PANSTARRS,e,15.2296,134.9480,353.2367,4.057383,0.1205966,0.41634220,25.4080,03/18.0/2021,2000,g 14.5,4.0
# From MPEC 2021-F20
387P/Boattini,e,8.9180,259.3240,162.7745,4.799052,0.0937499,0.73605254,52.3878,03/18.0/2021,2000,g 15.0,4.0
# From MPEC 2021-F20
388P/Gibbs,e,23.8657,37.0439,42.3732,5.244858,0.0820547,0.61797411,49.5163,03/18.0/2021,2000,g 13.0,4.0
# From MPEC 2021-F20
389P/Siding Spring,e,160.0668,218.8508,249.2963,5.626280,0.0738537,0.70434110,32.8486,03/18.0/2021,2000,g 16.0,4.0
# From MPEC 2021-F20
390P/Gibbs,e,18.5609,152.2754,232.3491,5.802578,0.0705136,0.70707118,25.4365,03/18.0/2021,2000,g 12.0,4.0
# From MPEC 2021-F20
391P/Kowalski,e,21.2762,124.7300,186.9090,4.678186,0.0974065,0.12074227,106.5066,03/18.0/2021,2000,g  8.0,4.0
# From MPEC 2020-HN5
392P/LINEAR,e,4.9300,24.8812,71.9734,6.146946,0.0646718,0.68280321,22.7130,03/18.0/2021,2000,g 14.5,4.0
# From MPEC 2021-BE3
393P/Spacewatch-Hill,e,16.7922,36.4186,328.1739,4.785839,0.0941384,0.12047815,47.9968,03/18.0/2021,2000,g 11.0,4.0
# From MPEC 2020-KB7
394P/PANSTARRS,e,8.5296,98.1248,54.5184,4.332292,0.1093019,0.36794525,51.7711,03/18.0/2021,2000,g 16.0,2.4
# From MPEC 2021-BE3
395P/Catalina-NEAT,e,3.2784,223.7806,89.7994,6.534595,0.0590033,0.37796849,343.0040,03/18.0/2021,2000,g 10.0,4.0
# From MPEC 2020-KB7
396P/,e,5.4363,136.6632,8.6185,6.819826,0.0553406,0.41604773,31.3938,03/18.0/2021,2000,g 12.0,4.0
# From MPEC 2021-F20
397P/Lemmon,e,10.9283,8.2064,14.4224,3.826962,0.1316506,0.40500149,35.7637,03/18.0/2021,2000,g 12.0,4.0
# From MPEC 2021-F20
398P/Boattini,e,11.0154,127.4623,320.2380,3.128369,0.1781259,0.58263222,14.4731,03/18.0/2021,2000,g 15.5,4.0
# From MPEC 2021-BE3
399P/PANSTARRS,e,13.3193,207.1465,214.2917,3.788715,0.1336491,0.44676175,351.2369,03/18.0/2021,2000,g 14.0,4.0
# From MPEC 2021-F20
400P/PANSTARRS,e,10.9290,176.3973,238.7857,3.559235,0.1467807,0.40904598,5.2704,03/18.0/2021,2000,g 15.5,2.8
# From MPEC 2021-BE3
401P/McNaught,e,12.8041,359.8884,309.3124,5.771896,0.0710765,0.58013767,33.1486,03/18.0/2021,2000,g 12.5,4.0
# From MPEC 2021-F20
402P/LINEAR,e,30.8530,123.0883,326.7521,7.008183,0.0531246,0.43811372,345.5666,03/18.0/2021,2000,g  8.0,4.0
# From MPEC 2021-F20
403P/Catalina,e,12.3205,163.8137,277.6695,5.426768,0.0779637,0.50334891,14.2393,03/18.0/2021,2000,g 12.0,4.0
# From MPEC 2020-W26
404P/Bressi,e,9.7775,262.3343,160.0788,4.844888,0.0924227,0.13708887,276.3963,03/18.0/2021,2000,g 10.0,4.0
# From MPEC 2021-F20
